1 56000U 23042Q   25352.38660111  .00000289  00000+0  36454-4 0  9999
2 56000  43.0025 137.5984 0001355 265.8657  94.2031 15.02543611150684
